COMMENT,ORIGINATOR,NORAD_CAT_ID,OBJECT_NAME,OBJECT_TYPE,CLASSIFICATION_TYPE,INTLDES,EPOCH,EPOCH_MICROSECONDS,MEAN_MOTION,ECCENTRICITY,INCLINATION,RA_OF_ASC_NODE,ARG_OF_PERICENTER,MEAN_ANOMALY,EPHEMERIS_TYPE,ELEMENT_SET_NO,REV_AT_EPOCH,BSTAR,MEAN_MOTION_DOT,MEAN_MOTION_DDOT,FILE,TLE_LINE0,TLE_LINE1,TLE_LINE2,OBJECT_ID,OBJECT_NUMBER,SEMIMAJOR_AXIS,PERIOD,APOGEE,PERIGEE
"GENERATED VIA SPACETRACK.ORG API","JSPOC","41033","FREGAT R/B","ROCKET BODY","U","15066B","2016-01-10 21:44:07","372032","2.01566971","0.6994846","63.8261","97.9274","269.7579","17.0757","0","999","109","0","1.396e-05","0","1979442","0 FREGAT R/B","1 41033U 15066B   16010.90564088  .00001396  00000-0  00000+0 0  9995","2 41033  63.8261  97.9274 6994846 269.7579  17.0757  2.01566971  1092","2015-066B","41033","26472.132","714.402","38610.846","1577.148"
"GENERATED VIA SPACETRACK.ORG API","JSPOC","4589","SL-8 R/B","ROCKET BODY","U","70086B","2016-01-10 21:44:10","84128","14.41356459","0.0021151","74.058","205.61","196.4838","163.5633","0","999","37138","3.5548e-05","8.9e-07","0","1979034","0 SL-8 R/B","1  4589U 70086B   16010.90567227 +.00000089 +00000-0 +35548-4 0  9999","2  4589 074.0580 205.6100 0021151 196.4838 163.5633 14.41356459371386","1970-086B","4589","7132.157","99.905","769.107","738.937"
"GENERATED VIA SPACETRACK.ORG API","JSPOC","40903","XW-2A","PAYLOAD","U","15049E","2016-01-10 21:44:16","642752","15.3474322","0.0016381","97.4514","24.2618","347.912","59.2701","0","999","1726","0.00017073","5.69e-05","0","1978657","0 XW-2A","1 40903U 15049E   16010.90574818  .00005690  00000-0  17073-3 0  9996","2 40903  97.4514  24.2618 0016381 347.9120  59.2701 15.34743220 17267","2015-049E","40903","6839.820","93.826","472.889","450.480"
"GENERATED VIA SPACETRACK.ORG API","JSPOC","3819","SL-8 R/B","ROCKET BODY","U","69024B","2016-01-10 21:44:17","799648","13.19453906","0.0010109","73.9873","171.6124","350.6037","174.9408","0","999","25437","-6.3224e-06","-2.2e-07","0","1979034","0 SL-8 R/B","1  3819U 69024B   16010.90576157 -.00000022 +00000-0 -63224-5 0  9998","2  3819 073.9873 171.6124 0010109 350.6037 174.9408 13.19453906254372","1969-024B","3819","7564.943","109.136","1194.455","1179.161"
"GENERATED VIA SPACETRACK.ORG API","JSPOC","22802","COSMOS 2263","PAYLOAD","U","93059A","2016-01-10 21:44:20","872896","14.13108761","0.0025842","70.9247","340.976","294.5137","95.8115","0","999","15098","-0.00011903","-2.71e-06","0","1979034","0 COSMOS 2263","1 22802U 93059A   16010.90579714 -.00000271 +00000-0 -11903-3 0  9999","2 22802 070.9247 340.9760 0025842 294.5137 095.8115 14.13108761150980","1993-059A","22802","7226.890","101.902","867.430","830.079"
"GENERATED VIA SPACETRACK.ORG API","JSPOC","39286","BREEZE-M R/B","ROCKET BODY","U","13056B","2016-01-10 21:44:29","122368","2.18175676","0.6082302","22.5261","182.4009","283.1398","19.027","0","999","1817","0","-1.2e-07","0","1979502","0 BREEZE-M R/B","1 39286U 13056B   16010.90589262 -.00000012 +00000-0 +00000-0 0  9996","2 39286 022.5261 182.4009 6082302 283.1398 019.0270 02.18175676018176","2013-056B","39286","25111.016","660.018","34006.159","3459.602"
"GENERATED VIA SPACETRACK.ORG API","JSPOC","26452","BLOCK DM-SL R/B","ROCKET BODY","U","00043B","2016-01-10 21:44:37","548960","2.16745966","0.6703738","1.6962","40.2518","355.3979","353.7808","0","999","12239","0","-2.5e-07","0","1979034","0 BLOCK DM-SL R/B","1 26452U 00043B   16010.90599015 -.00000025 +00000-0 +00000-0 0  9990","2 26452 001.6962 040.2518 6703738 355.3979 353.7808 02.16745966122397","2000-043B","26452","25221.320","664.372","35750.898","1935.473"
"GENERATED VIA SPACETRACK.ORG API","JSPOC","40923","BREEZE-KM R/B","ROCKET BODY","U","15050D","2016-01-10 21:44:37","599072","12.80397073","0.0203276","82.4901","286.9745","14.4149","346.2634","0","999","1394","0.00012105","4.1e-07","0","1979034","0 BREEZE-KM R/B","1 40923U 15050D   16010.90599073 +.00000041 +00000-0 +12105-3 0  9996","2 40923 082.4901 286.9745 0203276 014.4149 346.2634 12.80397073013943","2015-050D","40923","7718.010","112.465","1496.764","1182.987"
"GENERATED VIA SPACETRACK.ORG API","JSPOC","27006","SL-16 R/B","ROCKET BODY","U","01056F","2016-01-10 21:44:41","470656","13.70970932","0.0013987","99.2333","164.3499","232.8561","291.4291","0","999","70470","-3.0511e-06","-4.5e-07","0","1979034","0 SL-16 R/B","1 27006U 01056F   16010.90603554 -.00000045 +00000-0 -30511-5 0  9993","2 27006 099.2333 164.3499 0013987 232.8561 291.4291 13.70970932704704","2001-056F","27006","7374.224","105.035","1006.403","985.774"
"GENERATED VIA SPACETRACK.ORG API","JSPOC","25399","SAFIR 2","PAYLOAD","U","98043F","2016-01-10 21:44:46","123296","14.24523176","0.000226","98.5112","323.1834","35.2149","324.9179","0","999","90953","3.2354e-05","3.3e-07","0","1979034","0 SAFIR 2","1 25399U 98043F   16010.90608939 +.00000033 +00000-0 +32354-4 0  9991","2 25399 098.5112 323.1834 0002260 035.2149 324.9179 14.24523176909530","1998-043F","25399","7188.233","101.086","811.722","808.473"
"GENERATED VIA SPACETRACK.ORG API","JSPOC","28898","MOZ.5/SAFIR/RUBIN 5/SL-8","PAYLOAD","U","05043G","2016-01-10 21:44:56","449824","14.60034486","0.0020618","97.8595","179.6042","36.8256","323.4357","0","999","16684","3.8585e-05","1.42e-06","0","1979034","0 MOZ.5/SAFIR/RUBIN 5/SL-8","1 28898U 05043G   16010.90620891 +.00000142 +00000-0 +38585-4 0  9990","2 28898 097.8595 179.6042 0020618 036.8256 323.4357 14.60034486166844","2005-043G","28898","7071.199","98.627","707.644","678.485"
"GENERATED VIA SPACETRACK.ORG API","JSPOC","37256","BEIDOU 7","PAYLOAD","U","10068A","2016-01-10 21:45:03","317760","1.00289903","0.0041673","53.7699","317.3409","208.5471","29.1657","0","999","1859","0.0001","-2.31e-06","0","1979034","0 BEIDOU 7","1 37256U 10068A   16010.90628840 -.00000231 +00000-0 +10000-3 0  9994","2 37256 053.7699 317.3409 0041673 208.5471 029.1657 01.00289903018594","2010-068A","37256","42159.653","1435.837","35957.210","35605.826"
"GENERATED VIA SPACETRACK.ORG API","JSPOC","2174","THOR AGENA B R/B","ROCKET BODY","U","66040B","2016-01-10 21:45:16","898112","13.36042232","0.0056433","100.4722","160.426","35.1909","131.0688","0","999","42081","2.2136e-05","-3.6e-07","0","1978658","0 THOR AGENA B R/B","1 02174U 66040B   16010.90644558 -.00000036  00000-0  22136-4 0  9997","2 02174 100.4722 160.4260 0056433  35.1909 131.0688 13.36042232420817","1966-040B","2174","7502.195","107.781","1166.397","1081.723"
"GENERATED VIA SPACETRACK.ORG API","JSPOC","25677","GLOBALSTAR M019","PAYLOAD","U","99019B","2016-01-10 21:45:20","805984","12.1379149","8.23e-05","51.9894","292.0614","157.2627","312.6621","0","999","76695","-0.00022269","-1.11e-06","0","1979034","0 GLOBALSTAR M019","1 25677U 99019B   16010.90649081 -.00000111 +00000-0 -22269-3 0  9999","2 25677 051.9894 292.0614 0000823 157.2627 312.6621 12.13791490766953","1999-019B","25677","7997.835","118.636","1620.358","1619.041"
"GENERATED VIA SPACETRACK.ORG API","JSPOC","4387","COSMOS 340","PAYLOAD","U","70036E","2016-01-10 21:45:22","929696","12.56275801","0.004062","74.0297","356.0416","284.2784","99.0796","0","999","9602","-6.1779e-05","-2.7e-07","0","1979034","0 COSMOS 340","1  4387U 70036E   16010.90651539 -.00000027 +00000-0 -61779-4 0  9999","2  4387 074.0297 356.0416 0040620 284.2784 099.0796 12.56275801096029","1970-036E","4387","7816.491","114.624","1470.106","1406.605"
"GENERATED VIA SPACETRACK.ORG API","JSPOC","18402","COSMOS 1891","PAYLOAD","U","87087A","2016-01-10 21:45:26","680320","13.73628277","0.0049516","82.9223","159.7027","321.2409","205.9822","0","999","41568","2.2178e-06","1.7e-07","0","1978684","0 COSMOS 1891","1 18402U 87087A   16010.90655880  .00000017  00000-0  22178-5 0  9997","2 18402  82.9223 159.7027 0049516 321.2409 205.9822 13.73628277415688","1987-087A","18402","7364.710","104.831","1023.042","950.108"
"GENERATED VIA SPACETRACK.ORG API","JSPOC","20150","SL-8 R/B","ROCKET BODY","U","89059B","2016-01-10 21:45:28","307232","13.75613662","0.0027733","82.9414","122.2958","304.8729","194.4625","0","999","32844","4.9887e-05","6.3e-07","0","1978796","0 SL-8 R/B","1 20150U 89059B   16010.90657763  .00000063  00000-0  49887-4 0  9999","2 20150  82.9414 122.2958 0027733 304.8729 194.4625 13.75613662328444","1989-059B","20150","7357.622","104.680","999.892","959.082"
"GENERATED VIA SPACETRACK.ORG API","JSPOC","20150","SL-8 R/B","ROCKET BODY","U","89059B","2016-01-10 21:45:28","307232","13.75613662","0.0027733","82.9414","122.2958","304.8729","194.4625","0","999","32823","4.9887e-05","6.3e-07","0","1979034","0 SL-8 R/B","1 20150U 89059B   16010.90657763 +.00000063 +00000-0 +49887-4 0  9999","2 20150 082.9414 122.2958 0027733 304.8729 194.4625 13.75613662328231","1989-059B","20150","7357.622","104.680","999.892","959.082"
"GENERATED VIA SPACETRACK.ORG API","JSPOC","8421","SL-8 R/B","ROCKET BODY","U","75103B","2016-01-10 21:45:40","761792","13.76692067","0.0021762","82.9717","185.0668","262.9207","251.5534","0","999","1684","7.2211e-05","8.6e-07","0","1979034","0 SL-8 R/B","1  8421U 75103B   16010.90672178 +.00000086 +00000-0 +72211-4 0  9990","2  8421 082.9717 185.0668 0021762 262.9207 251.5534 13.76692067016842","1975-103B","8421","7353.780","104.598","991.648","959.641"
"GENERATED VIA SPACETRACK.ORG API","JSPOC","26093","PICOSAT 5","PAYLOAD","U","00004L","2016-01-10 21:45:42","87168","14.50519697","0.0031144","100.2092","1.5521","115.7572","244.6835","0","999","83895","0.00019945","7.22e-06","0","1978662","0 PICOSAT 5","1 26093U 00004L   16010.90673712  .00000722  00000-0  19945-3 0  9999","2 26093 100.2092   1.5521 0031144 115.7572 244.6835 14.50519697838953","2000-004L","26093","7102.088","99.274","746.072","701.834"
